{"type": "FeatureCollection", "features": [{"type": "Feature", "properties": {"norad_id": 25590, "name": "COSMOS 2361", "group": "musson", "lat": 79.66036948168998, "lon": 27.927625977256717, "alt_km": 1002.6569307147001, "timestamp": "2025-12-11T08:58:27.393298+00:00", "meta": {"OBJECT_NAME": "COSMOS 2361", "OBJECT_ID": "1998-076A", "EPOCH": "2025-12-11T01:53:57.122304", "MEAN_MOTION": 13.73217239, "ECCENTRICITY": 0.0030049, "INCLINATION": 82.9338, "RA_OF_ASC_NODE": 345.3147, "ARG_OF_PERICENTER": 270.423, "MEAN_ANOMALY": 155.4616, "EPHEMERIS_TYPE": 0, "CLASSIFICATION_TYPE": "U", "NORAD_CAT_ID": 25590, "ELEMENT_SET_NO": 999, "REV_AT_EPOCH": 35088, "BSTAR": 8.6975e-05, "MEAN_MOTION_DOT": 9.6e-07, "MEAN_MOTION_DDOT": 0}, "tle": {"line1": "1 25590U 98076A   25345.07913336  .00000096  00000+0  86975-4 0  9995", "line2": "2 25590  82.9338 345.3147 0030049 270.4230 155.4616 13.73217239350887"}}, "geometry": {"type": "Point", "coordinates": [27.927625977256717, 79.66036948168998]}}, {"type": "Feature", "properties": {"norad_id": 26818, "name": "COSMOS 2378", "group": "musson", "lat": 29.474441897349628, "lon": 176.7142880123014, "alt_km": 970.771258999277, "timestamp": "2025-12-11T08:58:27.393319+00:00", "meta": {"OBJECT_NAME": "COSMOS 2378", "OBJECT_ID": "2001-023A", "EPOCH": "2025-12-11T03:19:42.892032", "MEAN_MOTION": 13.7414181, "ECCENTRICITY": 0.0032314, "INCLINATION": 82.9273, "RA_OF_ASC_NODE": 0.9122, "ARG_OF_PERICENTER": 209.4154, "MEAN_ANOMALY": 218.0387, "EPHEMERIS_TYPE": 0, "CLASSIFICATION_TYPE": "U", "NORAD_CAT_ID": 26818, "ELEMENT_SET_NO": 999, "REV_AT_EPOCH": 22901, "BSTAR": 5.7444e-05, "MEAN_MOTION_DOT": 6.9e-07, "MEAN_MOTION_DDOT": 0}, "tle": {"line1": "1 26818U 01023A   25345.13869088  .00000069  00000+0  57444-4 0  9995", "line2": "2 26818  82.9273   0.9122 0032314 209.4154 218.0387 13.74141810229013"}}, "geometry": {"type": "Point", "coordinates": [176.7142880123014, 29.474441897349628]}}, {"type": "Feature", "properties": {"norad_id": 27436, "name": "COSMOS 2389", "group": "musson", "lat": -8.129875140123458, "lon": -53.01689683684846, "alt_km": 974.2943240101904, "timestamp": "2025-12-11T08:58:27.393333+00:00", "meta": {"OBJECT_NAME": "COSMOS 2389", "OBJECT_ID": "2002-026A", "EPOCH": "2025-12-10T10:54:24.322752", "MEAN_MOTION": 13.75154267, "ECCENTRICITY": 0.00476693, "INCLINATION": 82.95, "RA_OF_ASC_NODE": 308.6765, "ARG_OF_PERICENTER": 66.9463, "MEAN_ANOMALY": 56.1274, "EPHEMERIS_TYPE": 0, "CLASSIFICATION_TYPE": "U", "NORAD_CAT_ID": 27436, "ELEMENT_SET_NO": 999, "REV_AT_EPOCH": 18117, "BSTAR": 9.1929717e-05, "MEAN_MOTION_DOT": 1.04e-06, "MEAN_MOTION_DDOT": 0}, "tle": {"line1": "1 27436U 02026A   25344.45444818  .00000104  00000+0  91930-4 0  9998", "line2": "2 27436  82.9500 308.6765 0047669  66.9463  56.1274 13.75154267181173"}}, "geometry": {"type": "Point", "coordinates": [-53.01689683684846, -8.129875140123458]}}, {"type": "Feature", "properties": {"norad_id": 27818, "name": "COSMOS 2398", "group": "musson", "lat": -41.144917542664956, "lon": -92.50374782988372, "alt_km": 1019.5806558051017, "timestamp": "2025-12-11T08:58:27.393345+00:00", "meta": {"OBJECT_NAME": "COSMOS 2398", "OBJECT_ID": "2003-023A", "EPOCH": "2025-12-11T04:28:21.553248", "MEAN_MOTION": 13.72385495, "ECCENTRICITY": 0.0032524, "INCLINATION": 82.9484, "RA_OF_ASC_NODE": 273.8429, "ARG_OF_PERICENTER": 115.955, "MEAN_ANOMALY": 356.5826, "EPHEMERIS_TYPE": 0, "CLASSIFICATION_TYPE": "U", "NORAD_CAT_ID": 27818, "ELEMENT_SET_NO": 999, "REV_AT_EPOCH": 12795, "BSTAR": 9.1115e-05, "MEAN_MOTION_DOT": 9.9e-07, "MEAN_MOTION_DDOT": 0}, "tle": {"line1": "1 27818U 03023A   25345.18636057  .00000099  00000+0  91115-4 0  9997", "line2": "2 27818  82.9484 273.8429 0032524 115.9550 356.5826 13.72385495127956"}}, "geometry": {"type": "Point", "coordinates": [-92.50374782988372, -41.144917542664956]}}, {"type": "Feature", "properties": {"norad_id": 28380, "name": "COSMOS 2407", "group": "musson", "lat": 43.89746214953085, "lon": 27.076027009323372, "alt_km": 966.5092466690485, "timestamp": "2025-12-11T08:58:27.393356+00:00", "meta": {"OBJECT_NAME": "COSMOS 2407", "OBJECT_ID": "2004-028A", "EPOCH": "2025-12-11T03:38:19.095360", "MEAN_MOTION": 13.7631341, "ECCENTRICITY": 0.0040381, "INCLINATION": 82.9609, "RA_OF_ASC_NODE": 214.0685, "ARG_OF_PERICENTER": 59.155, "MEAN_ANOMALY": 55.0944, "EPHEMERIS_TYPE": 0, "CLASSIFICATION_TYPE": "U", "NORAD_CAT_ID": 28380, "ELEMENT_SET_NO": 999, "REV_AT_EPOCH": 7401, "BSTAR": 6.7057e-05, "MEAN_MOTION_DOT": 8.1e-07, "MEAN_MOTION_DDOT": 0}, "tle": {"line1": "1 28380U 04028A   25345.15160990  .00000081  00000+0  67057-4 0  9992", "line2": "2 28380  82.9609 214.0685 0040381  59.1550  55.0944 13.76313410 74012"}}, "geometry": {"type": "Point", "coordinates": [27.076027009323372, 43.89746214953085]}}, {"type": "Feature", "properties": {"norad_id": 28521, "name": "COSMOS 2414", "group": "musson", "lat": -18.418591615486207, "lon": -176.6692762223963, "alt_km": 969.3235884416754, "timestamp": "2025-12-11T08:58:27.393368+00:00", "meta": {"OBJECT_NAME": "COSMOS 2414", "OBJECT_ID": "2005-002A", "EPOCH": "2025-12-10T19:13:20.566272", "MEAN_MOTION": 13.87902537, "ECCENTRICITY": 0.0040783, "INCLINATION": 82.9493, "RA_OF_ASC_NODE": 186.1261, "ARG_OF_PERICENTER": 145.1098, "MEAN_ANOMALY": 215.2752, "EPHEMERIS_TYPE": 0, "CLASSIFICATION_TYPE": "U", "NORAD_CAT_ID": 28521, "ELEMENT_SET_NO": 999, "REV_AT_EPOCH": 5768, "BSTAR": 6.9471423e-05, "MEAN_MOTION_DOT": 9.9e-07, "MEAN_MOTION_DDOT": 0}, "tle": {"line1": "1 28521U 05002A   25344.80093248  .00000099  00000+0  69471-4 0  9995", "line2": "2 28521  82.9493 186.1261 0040783 145.1098 215.2752 13.87902537 57685"}}, "geometry": {"type": "Point", "coordinates": [-176.6692762223963, -18.418591615486207]}}, {"type": "Feature", "properties": {"norad_id": 32052, "name": "COSMOS 2429", "group": "musson", "lat": 1.2390004864131694, "lon": 164.1631692998518, "alt_km": 1005.0180691437154, "timestamp": "2025-12-11T08:58:27.393379+00:00", "meta": {"OBJECT_NAME": "COSMOS 2429", "OBJECT_ID": "2007-038A", "EPOCH": "2025-12-11T02:52:21.112320", "MEAN_MOTION": 13.75149145, "ECCENTRICITY": 0.003932, "INCLINATION": 82.9803, "RA_OF_ASC_NODE": 344.5032, "ARG_OF_PERICENTER": 42.2771, "MEAN_ANOMALY": 318.1405, "EPHEMERIS_TYPE": 0, "CLASSIFICATION_TYPE": "U", "NORAD_CAT_ID": 32052, "ELEMENT_SET_NO": 999, "REV_AT_EPOCH": 91580, "BSTAR": 7.4294e-05, "MEAN_MOTION_DOT": 8.7e-07, "MEAN_MOTION_DDOT": 0}, "tle": {"line1": "1 32052U 07038A   25345.11968880  .00000087  00000+0  74294-4 0  9994", "line2": "2 32052  82.9803 344.5032 0039320  42.2771 318.1405 13.75149145915800"}}, "geometry": {"type": "Point", "coordinates": [164.1631692998518, 1.2390004864131694]}}, {"type": "Feature", "properties": {"norad_id": 35635, "name": "COSMOS 2454", "group": "musson", "lat": 21.480976836951946, "lon": 172.4694451754946, "alt_km": 920.1809137251248, "timestamp": "2025-12-11T08:58:27.393389+00:00", "meta": {"OBJECT_NAME": "COSMOS 2454", "OBJECT_ID": "2009-039A", "EPOCH": "2025-12-11T00:46:45.675840", "MEAN_MOTION": 13.89928222, "ECCENTRICITY": 0.0020475, "INCLINATION": 82.9554, "RA_OF_ASC_NODE": 169.9392, "ARG_OF_PERICENTER": 78.3145, "MEAN_ANOMALY": 36.0602, "EPHEMERIS_TYPE": 0, "CLASSIFICATION_TYPE": "U", "NORAD_CAT_ID": 35635, "ELEMENT_SET_NO": 999, "REV_AT_EPOCH": 83126, "BSTAR": 6.5659e-05, "MEAN_MOTION_DOT": 9.7e-07, "MEAN_MOTION_DDOT": 0}, "tle": {"line1": "1 35635U 09039A   25345.03247310  .00000097  00000+0  65659-4 0  9992", "line2": "2 35635  82.9554 169.9392 0020475  78.3145  36.0602 13.89928222831265"}}, "geometry": {"type": "Point", "coordinates": [172.4694451754946, 21.480976836951946]}}, {"type": "Feature", "properties": {"norad_id": 36519, "name": "COSMOS 2463", "group": "musson", "lat": 27.977066327732565, "lon": -156.0463477031835, "alt_km": 1012.1062727313547, "timestamp": "2025-12-11T08:58:27.393399+00:00", "meta": {"OBJECT_NAME": "COSMOS 2463", "OBJECT_ID": "2010-017A", "EPOCH": "2025-12-11T05:01:54.171264", "MEAN_MOTION": 13.71649038, "ECCENTRICITY": 0.0034821, "INCLINATION": 82.9614, "RA_OF_ASC_NODE": 27.8371, "ARG_OF_PERICENTER": 292.4602, "MEAN_ANOMALY": 128.7739, "EPHEMERIS_TYPE": 0, "CLASSIFICATION_TYPE": "U", "NORAD_CAT_ID": 36519, "ELEMENT_SET_NO": 999, "REV_AT_EPOCH": 78216, "BSTAR": 5.9275e-05, "MEAN_MOTION_DOT": 6.8e-07, "MEAN_MOTION_DDOT": 0}, "tle": {"line1": "1 36519U 10017A   25345.20965476  .00000068  00000+0  59275-4 0  9996", "line2": "2 36519  82.9614  27.8371 0034821 292.4602 128.7739 13.71649038782160"}}, "geometry": {"type": "Point", "coordinates": [-156.0463477031835, 27.977066327732565]}}]}